COSMOS 2534 [GLONASS-M] 
1 44299U 19030A   26196.64779432  .00000053  00000+0  00000+0 0  9993
2 44299  64.3704 191.6581 0013542 275.0675  98.1029  2.13102164 55539
BEIDOU-3 IGSO-2         
1 44337U 19035A   26196.29549256 -.00000140  00000+0  00000+0 0  9999
2 44337  55.2501 158.6158 0039478 216.6534 142.7647  1.00257621 25948
NAVSTAR 78 (USA 293)    
1 44506U 19056A   26195.54465647 -.00000094  00000+0  00000+0 0  9996
2 44506  55.6222 330.0556 0063407 198.1524 143.2875  2.00569901 50619
BEIDOU-3 M24            
1 44542U 19061A   26196.16401752  .00000041  00000+0  00000+0 0  9999
2 44542  54.3974 181.7844 0008626 359.5016   0.4715  1.86229149 46310
BEIDOU-3 M23            
1 44543U 19061B   26196.46875494  .00000040  00000+0  00000+0 0  9990
2 44543  54.3958 181.7424 0005913 340.1411 135.5606  1.86227585 46320
EUTELSAT 5 WEST B       
1 44624U 19067A   26195.62938687 -.00000051  00000+0  00000+0 0  9990
2 44624   0.0701 333.5012 0003096 138.5371  42.0158  1.00269913 24718
BEIDOU-3 M22            
1 44793U 19078A   26194.39343167 -.00000062  00000+0  00000+0 0  9997
2 44793  53.9106 298.9058 0005750  50.3045 309.7753  1.86227300 45134
BEIDOU-3 M21            
1 44794U 19078B   26196.14417837 -.00000066  00000+0  00000+0 0  9993
2 44794  53.8818 298.8044 0003444  48.1201 311.9449  1.86227652 45176
COSMOS 2544 [GLONASS-M] 
1 44850U 19088A   26192.43092179 -.00000019  00000+0  00000+0 0  9991
2 44850  65.5782  72.9223 0012329 255.3827 104.5453  2.13103002 51235
BEIDOU-3 M19            
1 44864U 19090A   26196.14526441 -.00000041  00000+0  00000+0 0  9990
2 44864  56.5835  61.8670 0016849 297.6358 260.7027  1.86231024 44757
BEIDOU-3 M20            
1 44865U 19090B   26195.48425657 -.00000039  00000+0  00000+0 0  9991
2 44865  56.5841  61.9230 0014392 312.7381 252.0119  1.86231148 44724
BEIDOU-3 G2             
1 45344U 20017A   26196.64419419 -.00000151  00000+0  00000+0 0  9998
2 45344   2.9203  47.7324 0001958  61.8347 135.8454  1.00268971 23545
COSMOS 2545 [GLONASS-M] 
1 45358U 20018A   26196.37994293 -.00000061  00000+0  00000+0 0  9992
2 45358  64.3368 311.4285 0009576 229.8153 130.1163  2.13102376 49269
BEIDOU-3 G3             
1 45807U 20040A   26196.66461940 -.00000365  00000+0  00000+0 0  9993
2 45807   2.5148  67.4779 0002232 308.0988 267.6625  1.00276278 22350
NAVSTAR 79 (USA 304)    
1 45854U 20041A   26195.63993094 -.00000066  00000+0  00000+0 0  9990
2 45854  56.6877  27.8790 0065143 204.6636 142.7605  2.00557744 44586
GALAXY 30 (G-30)        
1 46114U 20056C   26196.60363400  .00000027  00000+0  00000+0 0  9992
2 46114   0.0141  59.9575 0001999  55.8237 269.9665  1.00271927 21579
COSMOS 2547 [GLONASS-K] 
1 46805U 20075A   26196.10040740  .00000057  00000+0  00000+0 0  9997
2 46805  64.6014 191.5439 0009461 239.9161 119.9951  2.13099926 44508
NAVSTAR 80 (USA 309)    
1 46826U 20078A   26196.43882312  .00000048  00000+0  00000+0 0  9998
2 46826  53.9772 209.6325 0074557 207.8264 333.7468  2.00564943 42075
NAVSTAR 81 (USA 319)    
1 48859U 21054A   26196.42546237 -.00000097  00000+0  00000+0 0  9998
2 48859  55.1594 331.3244 0026464 228.5424 129.7408  2.00566999 37315
QZS-1R (MICHIBIKI-1R)   
1 49336U 21096A   26195.57629205 -.00000304  00000+0  00000+0 0  9998
2 49336  37.5157  79.1769 0754906 272.2285 280.2291  1.00245239 17281
GSAT0223 (GALILEO 27)   
1 49809U 21116A   26193.80162081 -.00000091  00000+0  00000+0 0  9997
2 49809  57.1512 340.9841 0002430 195.8611 164.1379  1.70475864 28612
GSAT0224 (GALILEO 28)   
1 49810U 21116B   26194.50046551 -.00000094  00000+0  00000+0 0  9993
2 49810  57.1519 340.9637 0001862 181.9105 359.6169  1.70475939 28651
COSMOS 2557 [GLONASS-K] 
1 52984U 22075A   26196.26454493 -.00000064  00000+0  00000+0 0  9994
2 52984  64.2806 313.4964 0010842 271.2690  88.6188  2.13102178 31310
COSMOS 2559 [GLONASS-K] 
1 54031U 22130A   26195.61497873 -.00000064  00000+0  00000+0 0  9998
2 54031  64.2533 313.6016 0013085 181.0015 179.0060  2.13101643 29275
COSMOS 2564 [GLONASS-M] 
1 54377U 22161A   26195.92736262  .00000059  00000+0  00000+0 0  9990
2 54377  64.7437 191.7908 0012238 224.9723 134.9352  2.13101973 28227
NAVSTAR 82 (USA 343)    
1 55268U 23009A   26196.12832123  .00000009  00000+0  00000+0 0  9993
2 55268  55.1239 147.4206 0006245 321.9357 220.4571  2.00569545 25806
BEIDOU-3 G4             
1 56564U 23066A   26196.65612157 -.00000290  00000+0  00000+0 0  9990
2 56564   0.4601 339.0521 0004910 186.8874 143.8281  1.00272332 11670
NVS-01 (IRNSS-1J)       
1 56759U 23076A   26196.55391690 -.00000347  00000+0  00000+0 0  9995
2 56759   2.1006 243.0600 0003539   6.7613  12.3988  1.00264565 11407
COSMOS 2569 [GLONASS-K2]
1 57517U 23114A   26196.40894160 -.00000011  00000+0  00000+0 0  9993
2 57517  65.3183  71.6690 0009670 295.9396  64.0381  2.13103730 22867
BEIDOU-3 M28            
1 58654U 23207A   26195.68418466 -.00000042  00000+0  00000+0 0  9993
2 58654  55.7771  61.3755 0002430   4.8939 355.1823  1.86229662 17356
BEIDOU-3 M26            
1 58655U 23207B   26194.94472015 -.00000041  00000+0  00000+0 0  9991
2 58655  55.7789  61.3870 0002015 324.6613  35.3983  1.86229657 17320
